CTC2_L_00310016-03
1 20226U 22072GD  26070.40846065  .00000000  00000+0  00000-0 0  9992
2 20226  90.0000 180.0000 0000000   0.0000   0.0000 13.72670257    13
CTC2_L_00310016-04
1 20227U 24927AC  26070.40846065  .00000000  00000+0  00000-0 0  9994
2 20227  90.0000 180.0000 0000000   0.0000  90.0000 13.72670257    13
CTC2_L_00310017-01
1 20228U 25978EC  26070.40846065  .00000000  00000+0  00000-0 0  9992
2 20228  90.0000 192.0000 0000000   0.0000 192.0000 13.72670257    10
CTC2_L_00310017-02
1 20229U 23221HB  26070.40846065  .00000000  00000+0  00000-0 0  9992
2 20229  90.0000 192.0000 0000000   0.0000 282.0000 13.72670257    11
CTC2_L_00310017-03
1 20230U 25876BA  26070.40846065  .00000000  00000+0  00000-0 0  9992
2 20230  90.0000 192.0000 0000000   0.0000  12.0000 13.72670257    14
CTC2_L_00310017-04
1 20231U 25603CB  26070.40846065  .00000000  00000+0  00000-0 0  9991
2 20231  90.0000 192.0000 0000000   0.0000 102.0000 13.72670257    15
CTC2_L_00310018-01
1 20232U 22617XA  26070.40846065  .00000000  00000+0  00000-0 0  9994
2 20232  90.0000 204.0000 0000000   0.0000 204.0000 13.72670257    13
CTC2_L_00310018-02
1 20233U 24285TF  26070.40846065  .00000000  00000+0  00000-0 0  9998
2 20233  90.0000 204.0000 0000000   0.0000 294.0000 13.72670257    13
CTC2_L_00310018-03
1 20234U 26929NY  26070.40846065  .00000000  00000+0  00000-0 0  9996
2 20234  90.0000 204.0000 0000000   0.0000  24.0000 13.72670257    15
CTC2_L_00310018-04
1 20235U 22308SM  26070.40846065  .00000000  00000+0  00000-0 0  9994
2 20235  90.0000 204.0000 0000000   0.0000 114.0000 13.72670257    16
CTC2_L_00310019-01
1 20236U 26780LX  26070.40846065  .00000000  00000+0  00000-0 0  9993
2 20236  90.0000 216.0000 0000000   0.0000 216.0000 13.72670257    13
CTC2_L_00310019-02
1 20237U 23140GV  26070.40846065  .00000000  00000+0  00000-0 0  9991
2 20237  90.0000 216.0000 0000000   0.0000 306.0000 13.72670257    14
CTC2_L_00310019-03
1 20238U 22762IT  26070.40846065  .00000000  00000+0  00000-0 0  9991
2 20238  90.0000 216.0000 0000000   0.0000  36.0000 13.72670257    15
CTC2_L_00310019-04
1 20239U 23281AS  26070.40846065  .00000000  00000+0  00000-0 0  9999
2 20239  90.0000 216.0000 0000000   0.0000 126.0000 13.72670257    16
CTC2_L_00310020-01
1 20240U 24632IM  26070.40846065  .00000000  00000+0  00000-0 0  9992
2 20240  90.0000 228.0000 0000000   0.0000 228.0000 13.72670257    14
CTC2_L_00310020-02
1 20241U 23171AL  26070.40846065  .00000000  00000+0  00000-0 0  9990
2 20241  90.0000 228.0000 0000000   0.0000 318.0000 13.72670257    15
CTC2_L_00310020-03
1 20242U 22385OF  26070.40846065  .00000000  00000+0  00000-0 0  9997
2 20242  90.0000 228.0000 0000000   0.0000  48.0000 13.72670257    16
CTC2_L_00310020-04
1 20243U 22008YH  26070.40846065  .00000000  00000+0  00000-0 0  9990
2 20243  90.0000 228.0000 0000000   0.0000 138.0000 13.72670257    17
CTC2_L_00310021-01
1 20244U 25665LW  26070.40846065  .00000000  00000+0  00000-0 0  9993
2 20244  90.0000 240.0000 0000000   0.0000 240.0000 13.72670257    16
CTC2_L_00310021-02
1 20245U 23677OG  26070.40846065  .00000000  00000+0  00000-0 0  9995
2 20245  90.0000 240.0000 0000000   0.0000 330.0000 13.72670257    17
CTC2_L_00310021-03
1 20246U 23719BZ  26070.40846065  .00000000  00000+0  00000-0 0  9993
2 20246  90.0000 240.0000 0000000   0.0000  60.0000 13.72670257    18
CTC2_L_00310021-04
1 20247U 23757IA  26070.40846065  .00000000  00000+0  00000-0 0  9996
2 20247  90.0000 240.0000 0000000   0.0000 150.0000 13.72670257    19
CTC2_L_00310022-01
1 20248U 25732RM  26070.40846065  .00000000  00000+0  00000-0 0  9992
2 20248  90.0000 252.0000 0000000   0.0000 252.0000 13.72670257    16
CTC2_L_00310022-02
1 20249U 26023LD  26070.40846065  .00000000  00000+0  00000-0 0  9997
2 20249  90.0000 252.0000 0000000   0.0000 342.0000 13.72670257    17
CTC2_L_00310022-03
1 20250U 23147ZA  26070.40846065  .00000000  00000+0  00000-0 0  9993
2 20250  90.0000 252.0000 0000000   0.0000  72.0000 13.72670257    19
CTC2_L_00310022-04
1 20251U 23414ML  26070.40846065  .00000000  00000+0  00000-0 0  9991
2 20251  90.0000 252.0000 0000000   0.0000 162.0000 13.72670257    10
CTC2_L_00310023-01
1 20252U 26775CW  26070.40846065  .00000000  00000+0  00000-0 0  9995
2 20252  90.0000 264.0000 0000000   0.0000 264.0000 13.72670257    17
CTC2_L_00310023-02
1 20253U 26099NU  26070.40846065  .00000000  00000+0  00000-0 0  9995
2 20253  90.0000 264.0000 0000000   0.0000 354.0000 13.72670257    18
CTC2_L_00310023-03
1 20254U 24844XB  26070.40846065  .00000000  00000+0  00000-0 0  9992
2 20254  90.0000 264.0000 0000000   0.0000  84.0000 13.72670257    19
CTC2_L_00310023-04
1 20255U 22883SE  26070.40846065  .00000000  00000+0  00000-0 0  9994
2 20255  90.0000 264.0000 0000000   0.0000 174.0000 13.72670257    10
CTC2_L_00310024-01
1 20256U 24369WQ  26070.40846065  .00000000  00000+0  00000-0 0  9996
2 20256  90.0000 276.0000 0000000   0.0000 276.0000 13.72670257    17
CTC2_L_00310024-02
1 20257U 23988YO  26070.40846065  .00000000  00000+0  00000-0 0  9993
2 20257  90.0000 276.0000 0000000   0.0000   6.0000 13.72670257    19
CTC2_L_00310024-03
1 20258U 25114R   26070.40846065  .00000000  00000+0  00000-0 0  9997
2 20258  90.0000 276.0000 0000000   0.0000  96.0000 13.72670257    19
CTC2_L_00310024-04
1 20259U 24414TT  26070.40846065  .00000000  00000+0  00000-0 0  9990
2 20259  90.0000 276.0000 0000000   0.0000 186.0000 13.72670257    10
CTC2_L_00310025-01
1 20260U 24558RC  26070.40846065  .00000000  00000+0  00000-0 0  9991
2 20260  90.0000 288.0000 0000000   0.0000 288.0000 13.72670257    18
CTC2_L_00310025-02
1 20261U 26256XL  26070.40846065  .00000000  00000+0  00000-0 0  9999
2 20261  90.0000 288.0000 0000000   0.0000  18.0000 13.72670257    10
CTC2_L_00310025-03
1 20262U 25825EF  26070.40846065  .00000000  00000+0  00000-0 0  9991
2 20262  90.0000 288.0000 0000000   0.0000 108.0000 13.72670257    11
CTC2_L_00310025-04
1 20263U 24116PX  26070.40846065  .00000000  00000+0  00000-0 0  9994
2 20263  90.0000 288.0000 0000000   0.0000 198.0000 13.72670257    11
CTC2_L_00310026-01
1 20264U 22255TC  26070.40846065  .00000000  00000+0  00000-0 0  9997
2 20264  90.0000 300.0000 0000000   0.0000 300.0000 13.72670257    12
CTC2_L_00310026-02
1 20265U 24785YU  26070.40846065  .00000000  00000+0  00000-0 0  9998
2 20265  90.0000 300.0000 0000000   0.0000  30.0000 13.72670257    13
CTC2_L_00310026-03
1 20266U 23652HC  26070.40846065  .00000000  00000+0  00000-0 0  9991
2 20266  90.0000 300.0000 0000000   0.0000 120.0000 13.72670257    14
CTC2_L_00310026-04
1 20267U 26185MT  26070.40846065  .00000000  00000+0  00000-0 0  9996
2 20267  90.0000 300.0000 0000000   0.0000 210.0000 13.72670257    15
CTC2_L_00310027-01
1 20268U 26388OM  26070.40846065  .00000000  00000+0  00000-0 0  9992
2 20268  90.0000 312.0000 0000000   0.0000 312.0000 13.72670257    12
CTC2_L_00310027-02
1 20269U 26620NI  26070.40846065  .00000000  00000+0  00000-0 0  9992
2 20269  90.0000 312.0000 0000000   0.0000  42.0000 13.72670257    13
CTC2_L_00310027-03
1 20270U 23293TD  26070.40846065  .00000000  00000+0  00000-0 0  9997
2 20270  90.0000 312.0000 0000000   0.0000 132.0000 13.72670257    15
CTC2_L_00310027-04
1 20271U 25934NM  26070.40846065  .00000000  00000+0  00000-0 0  9992
2 20271  90.0000 312.0000 0000000   0.0000 222.0000 13.72670257    16
CTC2_L_00310028-01
1 20272U 22632SR  26070.40846065  .00000000  00000+0  00000-0 0  9995
2 20272  90.0000 324.0000 0000000   0.0000 324.0000 13.72670257    13
CTC2_L_00310028-02
1 20273U 26247YQ  26070.40846065  .00000000  00000+0  00000-0 0  9992
2 20273  90.0000 324.0000 0000000   0.0000  54.0000 13.72670257    14
CTC2_L_00310028-03
1 20274U 26646UB  26070.40846065  .00000000  00000+0  00000-0 0  9996
2 20274  90.0000 324.0000 0000000   0.0000 144.0000 13.72670257    15
CTC2_L_00310028-04
1 20275U 26006BY  26070.40846065  .00000000  00000+0  00000-0 0  9997
2 20275  90.0000 324.0000 0000000   0.0000 234.0000 13.72670257    16
CTC2_L_00310029-01
1 20276U 25144EV  26070.40846065  .00000000  00000+0  00000-0 0  9990
2 20276  90.0000 336.0000 0000000   0.0000 336.0000 13.72670257    13
CTC2_L_00310029-02
1 20277U 25826AU  26070.40846065  .00000000  00000+0  00000-0 0  9998
2 20277  90.0000 336.0000 0000000   0.0000  66.0000 13.72670257    14
CTC2_L_00310029-03
1 20278U 22386TU  26070.40846065  .00000000  00000+0  00000-0 0  9997
2 20278  90.0000 336.0000 0000000   0.0000 156.0000 13.72670257    15
CTC2_L_00310029-04
1 20279U 22064A   26070.40846065  .00000000  00000+0  00000-0 0  9991
2 20279  90.0000 336.0000 0000000   0.0000 246.0000 13.72670257    16
CTC2_L_00310030-01
1 20280U 24437QT  26070.40846065  .00000000  00000+0  00000-0 0  9999
2 20280  90.0000 348.0000 0000000   0.0000 348.0000 13.72670257    14
CTC2_L_00310030-02
1 20281U 26953HO  26070.40846065  .00000000  00000+0  00000-0 0  9995
2 20281  90.0000 348.0000 0000000   0.0000  78.0000 13.72670257    15
CTC2_L_00310030-03
1 20282U 25301IR  26070.40846065  .00000000  00000+0  00000-0 0  9992
2 20282  90.0000 348.0000 0000000   0.0000 168.0000 13.72670257    16
CTC2_L_00310030-04
1 20283U 26029QJ  26070.40846065  .00000000  00000+0  00000-0 0  9991
2 20283  90.0000 348.0000 0000000   0.0000 258.0000 13.72670257    17
